{
  "links" : {
    "next" : "https://api.nasa.gov/neo/rest/v1/feed?start_date=2016-02-09&end_date=2016-02-09&detailed=true&api_key=t0TVs3DtDT2H8Oy2Zy8m2eVrNsAVKAexjcZXUckd",
    "prev" : "https://api.nasa.gov/neo/rest/v1/feed?start_date=2016-02-07&end_date=2016-02-07&detailed=true&api_key=t0TVs3DtDT2H8Oy2Zy8m2eVrNsAVKAexjcZXUckd",
    "self" : "https://api.nasa.gov/neo/rest/v1/feed?start_date=2016-02-08&end_date=2016-02-08&detailed=true&api_key=t0TVs3DtDT2H8Oy2Zy8m2eVrNsAVKAexjcZXUckd"
  },
  "element_count" : 13,
  "near_earth_objects" : {
    "2016-02-08" : [ {
      "links" : {
        "self" : "https://api.nasa.gov/neo/rest/v1/neo/3591884?api_key=t0TVs3DtDT2H8Oy2Zy8m2eVrNsAVKAexjcZXUckd"
      },
      "neo_reference_id" : "3591884",
      "name" : "(2011 YT62)",
      "nasa_jpl_url" : "http://ssd.jpl.nasa.gov/sbdb.cgi?sstr=3591884",
      "absolute_magnitude_h" : 22.4,
      "estimated_diameter" : {
        "kilometers" : {
          "estimated_diameter_min" : 0.0880146521,
          "estimated_diameter_max" : 0.1968067451
        },
        "meters" : {
          "estimated_diameter_min" : 88.0146520901,
          "estimated_diameter_max" : 196.8067450894
        },
        "miles" : {
          "estimated_diameter_min" : 0.0546897524,
          "estimated_diameter_max" : 0.122290004
        },
        "feet" : {
          "estimated_diameter_min" : 288.7619911632,
          "estimated_diameter_max" : 645.6914415591
        }
      },
      "is_potentially_hazardous_asteroid" : false,
      "close_approach_data" : [ {
        "close_approach_date" : "2016-02-08",
        "epoch_date_close_approach" : 1454918400000,
        "relative_velocity" : {
          "kilometers_per_second" : "5.6604890458",
          "kilometers_per_hour" : "20377.760564955",
          "miles_per_hour" : "12661.9479465966"
        },
        "miss_distance" : {
          "astronomical" : "0.3437029484",
          "lunar" : "133.7004394531",
          "kilometers" : "51417228",
          "miles" : "31949184"
        },
        "orbiting_body" : "Earth"
      } ],
      "orbital_data" : {
        "orbit_id" : "13",
        "orbit_determination_date" : "2017-04-06 08:51:36",
        "orbit_uncertainty" : "2",
        "minimum_orbit_intersection" : ".0176588",
        "jupiter_tisserand_invariant" : "5.277",
        "epoch_osculation" : "2458000.5",
        "eccentricity" : ".1938403869636977",
        "semi_major_axis" : "1.198806256768071",
        "inclination" : "6.145774178781777",
        "ascending_node_longitude" : "34.81862053824828",
        "orbital_period" : "479.4263813884444",
        "perihelion_distance" : ".966429188061646",
        "perihelion_argument" : "344.3858313605355",
        "aphelion_distance" : "1.431183325474496",
        "perihelion_time" : "2457767.071609666486",
        "mean_anomaly" : "175.2807600547501",
        "mean_motion" : ".7508973514503328",
        "equinox" : "J2000"
      }
    }, {
      "links" : {
        "self" : "https://api.nasa.gov/neo/rest/v1/neo/3740666?api_key=t0TVs3DtDT2H8Oy2Zy8m2eVrNsAVKAexjcZXUckd"
      },
      "neo_reference_id" : "3740666",
      "name" : "(2016 BS)",
      "nasa_jpl_url" : "http://ssd.jpl.nasa.gov/sbdb.cgi?sstr=3740666",
      "absolute_magnitude_h" : 24.1,
      "estimated_diameter" : {
        "kilometers" : {
          "estimated_diameter_min" : 0.040230458,
          "estimated_diameter_max" : 0.0899580388
        },
        "meters" : {
          "estimated_diameter_min" : 40.2304579834,
          "estimated_diameter_max" : 89.9580388169
        },
        "miles" : {
          "estimated_diameter_min" : 0.0249980399,
          "estimated_diameter_max" : 0.0558973165
        },
        "feet" : {
          "estimated_diameter_min" : 131.9896957704,
          "estimated_diameter_max" : 295.1379320721
        }
      },
      "is_potentially_hazardous_asteroid" : false,
      "close_approach_data" : [ {
        "close_approach_date" : "2016-02-08",
        "epoch_date_close_approach" : 1454918400000,
        "relative_velocity" : {
          "kilometers_per_second" : "4.8017041672",
          "kilometers_per_hour" : "17286.1350020688",
          "miles_per_hour" : "10740.9320517021"
        },
        "miss_distance" : {
          "astronomical" : "0.0992704175",
          "lunar" : "38.616191864",
          "kilometers" : "14850643",
          "miles" : "9227762"
        },
        "orbiting_body" : "Earth"
      } ],
      "orbital_data" : {
        "orbit_id" : "18",
        "orbit_determination_date" : "2017-04-06 08:29:00",
        "orbit_uncertainty" : "6",
        "minimum_orbit_intersection" : ".0942024",
        "jupiter_tisserand_invariant" : "4.299",
        "epoch_osculation" : "2458000.5",
        "eccentricity" : ".3348503492143574",
        "semi_major_axis" : "1.59613399029673",
        "inclination" : "5.360108493650926",
        "ascending_node_longitude" : "163.2290780449278",
        "orbital_period" : "736.5503600001159",
        "perihelion_distance" : "1.061667966252964",
        "perihelion_argument" : "320.4381206825116",
        "aphelion_distance" : "2.130600014340495",
        "perihelion_time" : "2458150.801228879900",
        "mean_anomaly" : "286.5380273566693",
        "mean_motion" : ".4887649501657203",
        "equinox" : "J2000"
      }
    }, {
      "links" : {
        "self" : "https://api.nasa.gov/neo/rest/v1/neo/3740954?api_key=t0TVs3DtDT2H8Oy2Zy8m2eVrNsAVKAexjcZXUckd"
      },
      "neo_reference_id" : "3740954",
      "name" : "(2016 BQ15)",
      "nasa_jpl_url" : "http://ssd.jpl.nasa.gov/sbdb.cgi?sstr=3740954",
      "absolute_magnitude_h" : 25.1,
      "estimated_diameter" : {
        "kilometers" : {
          "estimated_diameter_min" : 0.0253837029,
          "estimated_diameter_max" : 0.0567596853
        },
        "meters" : {
          "estimated_diameter_min" : 25.3837029364,
          "estimated_diameter_max" : 56.7596852866
        },
        "miles" : {
          "estimated_diameter_min" : 0.0157726969,
          "estimated_diameter_max" : 0.0352688224
        },
        "feet" : {
          "estimated_diameter_min" : 83.279867942,
          "estimated_diameter_max" : 186.2194458756
        }
      },
      "is_potentially_hazardous_asteroid" : false,
      "close_approach_data" : [ {
        "close_approach_date" : "2016-02-08",
        "epoch_date_close_approach" : 1454918400000,
        "relative_velocity" : {
          "kilometers_per_second" : "20.8187897932",
          "kilometers_per_hour" : "74947.6432555452",
          "miles_per_hour" : "46569.5508884247"
        },
        "miss_distance" : {
          "astronomical" : "0.0218941214",
          "lunar" : "8.5168132782",
          "kilometers" : "3275314",
          "miles" : "2035185.75"
        },
        "orbiting_body" : "Earth"
      } ],
      "orbital_data" : {
        "orbit_id" : "8",
        "orbit_determination_date" : "2017-04-06 08:28:51",
        "orbit_uncertainty" : "7",
        "minimum_orbit_intersection" : ".00157006",
        "jupiter_tisserand_invariant" : "3.398",
        "epoch_osculation" : "2458000.5",
        "eccentricity" : ".6964004186247132",
        "semi_major_axis" : "2.090885831994947",
        "inclination" : ".933086413342087",
        "ascending_node_longitude" : "135.1536601437658",
        "orbital_period" : "1104.317378338152",
        "perihelion_distance" : ".6347920632971842",
        "perihelion_argument" : "87.90549748122193",
        "aphelion_distance" : "3.546979600692711",
        "perihelion_time" : "2457472.469410912524",
        "mean_anomaly" : "172.1344024826927",
        "mean_motion" : ".3259932398616703",
        "equinox" : "J2000"
      }
    } ]
  }
}